MALLIGYONG-1            
1 58400U 23179A   24098.64279154  .00005315  00000+0  23712-3 0  9991
2 58400  97.4139 346.5483 0010698 141.7545 218.4452 15.21764741 20990
